{"type":"FeatureCollection","features":[{"type":"Feature","geometry":{"type":"Polygon","coordinates":[[[103.870011,51.579633087178415],[104.120011,51.53334119744861],[104.300022,51.500009],[104.370011,51.49462530324751],[104.620011,51.47539479290841],[104.81999,51.460012],[104.870011,51.46715693844667],[105.120011,51.50286663260846],[105.240016,51.520008],[105.370011,51.58239907972465],[105.370011,51.710012],[105.63589903470634,51.710012],[105.740037,51.759993],[105.870011,51.861083929006774],[105.870011,51.960012],[105.99720418365757,51.960012],[106.100015,52.039976],[106.120011,52.05034522749014],[106.120011,52.210012],[106.4279121224454,52.210012],[106.620011,52.309627771252494],[106.620011,52.460012],[107.44001325005938,52.460012],[107.620011,52.52001112497422],[107.799963,52.579995],[107.870011,52.620543721083706],[107.870011,52.710012],[108.02456763789223,52.710012],[108.120011,52.76526134715337],[108.120011,52.960012],[108.31176039599625,52.960012],[108.370011,53.03075562061268],[108.370011,53.210012],[108.76223085801354,53.210012],[108.800005,53.379998],[108.620011,53.43399610999715],[108.600018,53.439994],[108.620011,53.45699066174886],[108.62356496939397,53.460012],[108.870011,53.66952332004],[108.870011,53.710012],[108.91763742161156,53.710012],[108.999993,53.780025],[109.0962522350383,53.710012],[109.26501669273651,53.710012],[109.319974,53.819997],[109.36305334293472,53.960012],[109.370011,53.98262553789612],[109.370011,54.460012],[109.5368285533351,54.460012],[109.620011,54.63558078311051],[109.620011,55.210012],[109.77211721141903,55.210012],[109.85050058440935,55.460012],[109.870011,55.52223953259502],[109.870011,55.710012],[109.47343827669205,55.710012],[109.370011,55.64558095762006],[109.370011,55.460012],[109.17252391030206,55.460012],[109.120011,55.27050152525805],[109.120011,54.960012],[108.99347084028182,54.960012],[108.870011,54.81913993311967],[108.870011,54.710012],[108.77437161959192,54.710012],[108.620011,54.53388104537373],[108.620011,54.460012],[108.55527239890203,54.460012],[108.379979,54.259996],[108.370011,54.24826921880652],[108.370011,54.210012],[108.33749159413989,54.210012],[108.12498656322948,53.960012],[108.120011,53.95415853478065],[108.120011,53.710012],[107.84588649296724,53.710012],[107.620011,53.535471402965634],[107.620011,53.460012],[107.47145273473295,53.460012],[107.370011,53.412672568879366],[107.370011,53.210012],[107.1130092300038,53.210012],[107.080007,53.18001],[106.870011,53.08667745067118],[106.870011,52.960012],[106.620011,52.960012],[106.620011,52.710012],[106.42003905563118,52.710012],[106.370011,52.68187126756589],[106.260005,52.619993],[106.120011,52.56999510714222],[106.120011,52.460012],[105.85503654365255,52.460012],[105.620011,52.34721105740159],[105.620011,52.210012],[105.37499600005,52.210012],[105.370011,52.20668877740425],[105.120011,52.04002766594925],[105.120011,51.960012],[104.87145766706423,51.960012],[104.870011,51.959705096889294],[104.620011,51.90666885961446],[104.399964,51.859987],[103.870011,51.859987],[103.870011,51.579633087178415]]]},"properties":{"name":"Lake Baikal","ownerKind":"country","ownerKey":"RUS","ownerName":"Russia"}},{"type":"Feature","geometry":{"type":"Polygon","coordinates":[[[-99.236805,53.216287],[-99.21935981397279,53.198911],[-98.986805,53.198911],[-98.986805,52.967278477349524],[-98.96836438885744,52.948911],[-98.736805,52.948911],[-98.736805,52.71826995469904],[-98.7173689637421,52.698911],[-98.486805,52.698911],[-98.486805,52.46926143204856],[-98.46637353862675,52.448911],[-98.236805,52.448911],[-98.236805,52.220252909398084],[-98.21537811351142,52.198911],[-97.986805,52.198911],[-97.986805,52.03218891034818],[-97.86975538574215,51.948911],[-97.736805,51.948911],[-97.736805,51.85432008336355],[-97.51837284693788,51.698911],[-97.236805,51.698911],[-97.236805,51.498582429394276],[-97.235687,51.497787],[-97.2150135377215,51.448911],[-97.10926909117055,51.198911],[-96.986805,51.198911],[-96.986805,50.90938257755102],[-96.921107,50.75406],[-96.88577140269507,50.698911],[-96.736805,50.698911],[-96.736805,50.466416043955036],[-96.725589,50.448911],[-96.486805,50.567449108854696],[-96.486805,50.698911],[-96.23962240451687,50.698911],[-96.29437811996965,50.948911],[-96.34913383542242,51.198911],[-96.486805,51.198911],[-96.486805,51.550007795759484],[-96.57867781288546,51.698911],[-96.736805,51.698911],[-96.736805,51.95519622845216],[-96.88717625438666,52.198911],[-96.986805,52.198911],[-96.986805,52.36038466114484],[-97.04142547513725,52.448911],[-97.236805,52.448911],[-97.236805,52.76557309383752],[-97.34992391663843,52.948911],[-97.486805,52.948911],[-97.486805,53.17076152653019],[-97.50417313738903,53.198911],[-97.643802,53.425215],[-97.64982541945179,53.448911],[-97.736805,53.448911],[-97.736805,53.791086761984815],[-97.7769232303015,53.948911],[-97.805006,54.059388],[-97.88186877451217,54.198911],[-98.2963765570199,54.198911],[-98.486805,54.121145104442924],[-98.486805,53.948911],[-98.90856150524165,53.948911],[-98.955401,53.929783],[-98.986805,53.85015858675783],[-98.986805,53.448911],[-99.14505771046228,53.448911],[-99.236805,53.216287]]]},"properties":{"name":"Lake Winnipeg","ownerKind":"ca-province","ownerKey":"Manitoba","ownerName":"Manitoba"}},{"type":"Feature","geometry":{"type":"MultiPolygon","coordinates":[[[[-118.384991,61.521103],[-118.347474,61.361371],[-118.33956176339494,61.360006],[-117.884991,61.360006],[-117.884991,61.26286686009638],[-117.384991,61.12346844567076],[-117.33670334290494,61.110006],[-116.884991,61.110006],[-116.884991,60.98407003124514],[-116.634991,60.91437082403233],[-116.439993,60.860006],[-116.384991,60.860836232654506],[-115.884991,60.868383527793824],[-115.634991,60.87215717536349],[-115.384991,60.87593082293315],[-115.34099,60.876595],[-115.134991,60.90122771759179],[-114.884991,60.93112193745668],[-114.634991,60.961016157321566],[-114.384991,60.99091037718646],[-114.384991,61.110006],[-113.57687731843082,61.110006],[-113.384991,61.2012293593644],[-113.384991,61.360006],[-113.05100784879114,61.360006],[-112.884991,61.43893093212475],[-112.884991,61.610006],[-112.54453305797755,61.610006],[-112.384991,61.702962316709204],[-112.384991,61.860006],[-112.11545501458689,61.860006],[-111.884991,61.994284610929206],[-111.884991,62.110006],[-111.68637697119622,62.110006],[-111.634991,62.13994575803921],[-111.384991,62.285606905149216],[-111.384991,62.360006],[-111.1991221778357,62.360006],[-111.134991,62.36909289108975],[-110.884991,62.40451595439692],[-110.634991,62.439939017704084],[-110.384991,62.475362081011255],[-110.384991,62.610006],[-109.5765338573573,62.610006],[-109.384991,62.644485407181136],[-109.134991,62.6894876166825],[-109.134991,62.823379923111425],[-109.31212439949125,62.860006],[-109.884991,62.860006],[-109.884991,63.000527587694044],[-110.134991,63.06359672618478],[-110.200012,63.08],[-110.384991,63.04476814883554],[-110.634991,62.997152134092694],[-110.634991,62.860006],[-111.13307805091256,62.860006],[-111.134991,62.85877261973623],[-111.384991,62.69758429121865],[-111.384991,62.610006],[-111.52082324670187,62.610006],[-111.634991,62.53639596270106],[-111.634991,62.360006],[-112.10869825587851,62.360006],[-112.134991,62.35334101497806],[-112.634991,62.22659530537954],[-112.634991,62.110006],[-113.09492493286781,62.110006],[-113.134991,62.099849595781016],[-113.353411,62.044482],[-113.384991,62.05550651667782],[-113.54110611448623,62.110006],[-113.884991,62.110006],[-113.884991,62.23005554577578],[-114.134991,62.31733006032475],[-114.25723728202115,62.360006],[-114.634991,62.360006],[-114.634991,62.47046482697729],[-114.884991,62.52838800919796],[-115.134991,62.58631119141864],[-115.23725924421994,62.610006],[-115.634991,62.610006],[-115.634991,62.42053229887021],[-115.54922825805171,62.360006],[-115.384991,62.360006],[-115.384991,62.24409700338169],[-115.19499074663459,62.110006],[-115.134991,62.110006],[-115.134991,62.067661707893166],[-115,61.972393],[-115.134991,61.91659020775517],[-115.134991,61.860006],[-115.27187230077013,61.860006],[-115.384991,61.81324481390515],[-115.634991,61.70989942005513],[-115.634991,61.610006],[-115.93003599688709,61.610006],[-116.134991,61.54328796013217],[-116.384991,61.46190663392093],[-116.384991,61.360006],[-116.6980254474125,61.360006],[-116.802813,61.325895],[-116.884991,61.33964714172096],[-117.0066484326823,61.360006],[-117.634991,61.360006],[-117.634991,61.46515647865687],[-117.884991,61.50699292430218],[-118.134991,61.548829369947484],[-118.179603,61.556295],[-118.384991,61.521103]]],[[[-116.058595,62.778804],[-115.884991,62.61540409462598],[-115.884991,62.75587679391662],[-116.058595,62.778804]]]]},"properties":{"name":"Great Slave Lake","ownerKind":"ca-province","ownerKey":"Northwest Territories","ownerName":"Northwest Territories"}},{"type":"Feature","geometry":{"type":"MultiPolygon","coordinates":[[[[-79.760475,43.297202],[-79.510475,43.23775547842332],[-79.361688,43.202376],[-79.260475,43.219520252326596],[-79.056306,43.254104],[-79.010475,43.26517105697164],[-79.010475,43.702376],[-79.29819250493928,43.702376],[-79.461165,43.639197],[-79.510475,43.5828548348535],[-79.510475,43.452376],[-79.62466854101667,43.452376],[-79.760475,43.297202]]],[[[-78.760475,43.702376],[-77.260475,43.702376],[-77.260475,43.452376],[-77.010475,43.452376],[-77.010475,43.702376],[-76.510475,43.702376],[-76.510475,44.1890137776868],[-76.54918781028982,44.202376],[-76.57848257445335,44.202376],[-76.760475,44.12285638895371],[-76.760475,43.952376],[-77.03152323692406,43.952376],[-77.161486,43.85014],[-77.260475,43.89233100181808],[-77.40135324580841,43.952376],[-78.14515803497818,43.952376],[-78.260475,43.933800424194956],[-78.450529,43.903186],[-78.510475,43.89080392900933],[-78.760475,43.839165491954844],[-78.760475,43.702376]]]]},"properties":{"name":"Lake Ontario","ownerKind":"ca-province","ownerKey":"Ontario","ownerName":"Ontario"}},{"type":"Feature","geometry":{"type":"Polygon","coordinates":[[[-79.010475,43.26517105697164],[-78.760475,43.32553989559419],[-78.760475,43.452376],[-77.510475,43.452376],[-77.510475,43.31869643572659],[-77.260475,43.29341471042387],[-77.010475,43.26813298512114],[-76.930002,43.259995],[-76.760475,43.33458763947488],[-76.760475,43.452376],[-76.49277690625625,43.452376],[-76.260475,43.55458987945696],[-76.260475,44.00813939327561],[-76.353034,44.134671],[-76.510475,44.1890137776868],[-76.510475,43.702376],[-77.010475,43.702376],[-77.010475,43.452376],[-77.260475,43.452376],[-77.260475,43.702376],[-79.010475,43.702376],[-79.010475,43.26517105697164]]]},"properties":{"name":"Lake Ontario","ownerKind":"us-state","ownerKey":"New York","ownerName":"New York"}},{"type":"Feature","geometry":{"type":"Polygon","coordinates":[[[-83.462833,41.693967],[-83.43884474838177,41.685921],[-83.212833,41.685921],[-83.212833,41.935921],[-83.24797127470606,41.935921],[-83.462833,41.693967]]]},"properties":{"name":"Lake Erie","ownerKind":"us-state","ownerKey":"Michigan","ownerName":"Michigan"}},{"type":"Feature","geometry":{"type":"MultiPolygon","coordinates":[[[[-83.212833,41.685921],[-82.962833,41.685921],[-82.962833,41.935921],[-83.212833,41.935921],[-83.212833,41.685921]]],[[[-82.962833,41.52625990470917],[-82.8461,41.487106],[-82.712833,41.47342655005404],[-82.462833,41.447764814692036],[-82.347449,41.435921],[-82.212833,41.46065519193712],[-81.962833,41.50658990983307],[-81.712833,41.55252462772901],[-81.712833,41.685921],[-81.37297494593813,41.685921],[-81.212833,41.760696589840556],[-81.212833,41.935921],[-80.68600722286091,41.935921],[-80.516449,41.980332],[-80.462833,42.00089606829099],[-80.462833,42.185921],[-81.462833,42.185921],[-81.462833,41.935921],[-82.212833,41.935921],[-82.212833,41.685921],[-82.962833,41.685921],[-82.962833,41.52625990470917]]]]},"properties":{"name":"Lake Erie","ownerKind":"us-state","ownerKey":"Ohio","ownerName":"Ohio"}},{"type":"Feature","geometry":{"type":"MultiPolygon","coordinates":[[[[-83.212833,41.935921],[-82.962833,41.935921],[-82.962833,42.06197360228727],[-83.120011,42.080016],[-83.212833,41.97548991859916],[-83.212833,41.935921]]],[[[-82.962833,41.685921],[-82.212833,41.685921],[-82.212833,41.935921],[-81.462833,41.935921],[-81.462833,42.185921],[-80.462833,42.185921],[-80.462833,42.435921],[-79.712833,42.435921],[-79.712833,42.685921],[-79.1614661401653,42.685921],[-78.962833,42.823570881940796],[-78.962833,42.935921],[-79.1260727202456,42.935921],[-79.212833,42.923677268147294],[-79.462833,42.88839691898474],[-79.712833,42.853116569822184],[-79.791351,42.842036],[-79.962833,42.79761264768175],[-79.962833,42.685921],[-80.33002471963464,42.685921],[-80.462833,42.60824099596584],[-80.545156,42.56009],[-80.712833,42.59079031862222],[-80.962833,42.63656332061745],[-81.094967,42.660756],[-81.212833,42.64268568460956],[-81.392262,42.615177],[-81.462833,42.57000903386172],[-81.462833,42.435921],[-81.67233383536387,42.435921],[-81.712833,42.41000008493697],[-81.829186,42.33553],[-81.962833,42.27816484836405],[-81.962833,42.185921],[-82.17773897079822,42.185921],[-82.212833,42.170857629279546],[-82.462833,42.06355041019504],[-82.462833,41.935921],[-82.962833,41.935921],[-82.962833,41.685921]]]]},"properties":{"name":"Lake Erie","ownerKind":"ca-province","ownerKey":"Ontario","ownerName":"Ontario"}},{"type":"Feature","geometry":{"type":"Polygon","coordinates":[[[-80.462833,42.00089606829099],[-80.212833,42.09678194326762],[-80.212833,42.185921],[-79.98042375110359,42.185921],[-79.962833,42.19266781824425],[-79.762206,42.269617],[-79.712833,42.30383177209396],[-79.712833,42.435921],[-80.462833,42.435921],[-80.462833,42.00089606829099]]]},"properties":{"name":"Lake Erie","ownerKind":"us-state","ownerKey":"Pennsylvania","ownerName":"Pennsylvania"}},{"type":"Feature","geometry":{"type":"Polygon","coordinates":[[[-79.712833,42.435921],[-79.52222405975934,42.435921],[-79.462833,42.477078142042906],[-79.462833,42.685921],[-79.712833,42.685921],[-79.712833,42.435921]]]},"properties":{"name":"Lake Erie","ownerKind":"us-state","ownerKey":"New York","ownerName":"New York"}},{"type":"Feature","geometry":{"type":"MultiPolygon","coordinates":[[[[-92.011923,46.711671],[-91.761923,46.7636542762434],[-91.761923,46.939595],[-91.87809228605518,46.939595],[-92.008771,46.858432],[-92.011923,46.711671]]],[[[-91.761923,46.939595],[-91.261923,46.939595],[-91.261923,47.189595],[-91.47557293011462,47.189595],[-91.511923,47.167018402534],[-91.761923,47.0117463663509],[-91.761923,46.939595]]],[[[-91.261923,47.189595],[-89.761923,47.189595],[-89.761923,47.439595],[-89.511923,47.439595],[-89.511923,47.939595],[-89.81759859988485,47.939595],[-90.011923,47.87672853508368],[-90.261923,47.79585029117933],[-90.261923,47.689595],[-90.59036513118977,47.689595],[-90.619993,47.68001],[-90.761923,47.600049937775346],[-90.761923,47.439595],[-91.0467322996035,47.439595],[-91.261923,47.3183615624331],[-91.261923,47.189595]]]]},"properties":{"name":"Lake Superior","ownerKind":"us-state","ownerKey":"Minnesota","ownerName":"Minnesota"}},{"type":"Feature","geometry":{"type":"MultiPolygon","coordinates":[[[[-91.761923,46.7636542762434],[-91.511923,46.815637552486805],[-91.511923,46.939595],[-91.761923,46.939595],[-91.761923,46.7636542762434]]],[[[-91.261923,46.939595],[-90.761923,46.939595],[-90.761923,46.780978888397286],[-90.5988616606505,46.689595],[-90.511923,46.689595],[-90.511923,46.939595],[-90.261923,46.939595],[-90.261923,47.189595],[-91.261923,47.189595],[-91.261923,46.939595]]]]},"properties":{"name":"Lake Superior","ownerKind":"us-state","ownerKey":"Wisconsin","ownerName":"Wisconsin"}},{"type":"Feature","geometry":{"type":"Polygon","coordinates":[[[-90.511923,46.689595],[-90.05370884435682,46.689595],[-90.011923,46.703361370524554],[-89.761923,46.78572401471933],[-89.761923,46.939595],[-89.35561773993314,46.939595],[-89.261923,46.97742402646377],[-89.011923,47.07836092668561],[-89.011923,47.189595],[-88.72984252979461,47.189595],[-88.511923,47.271342011614564],[-88.511923,47.439595],[-88.06339758737244,47.439595],[-88.011923,47.45890439230529],[-87.939924,47.485913],[-87.96814508418225,47.439595],[-88.011923,47.36774426982428],[-88.011923,47.189595],[-88.12046753000386,47.189595],[-88.261222,46.958581],[-88.17682327012554,46.939595],[-87.761923,46.939595],[-87.761923,46.84626069816489],[-87.69428,46.831044],[-87.511923,46.732382170182824],[-87.43283932592372,46.689595],[-87.261923,46.689595],[-87.261923,46.597122994750606],[-87.011923,46.46186381931839],[-86.990008,46.450007],[-86.761923,46.50723413072523],[-86.511923,46.56995979300599],[-86.511923,46.689595],[-85.91207636534301,46.689595],[-85.761923,46.70294416284918],[-85.511923,46.725170043066186],[-85.261923,46.7473959232832],[-85.119993,46.760014],[-85.06718327680638,46.689595],[-85.011923,46.689595],[-85.011923,46.615908315103724],[-84.910005,46.480006],[-84.761923,46.46039210113505],[-84.761923,46.88637529315854],[-84.815283,46.902331],[-84.79857985544155,46.939595],[-85.261923,46.939595],[-85.261923,47.189595],[-85.761923,47.189595],[-85.761923,47.439595],[-86.761923,47.439595],[-86.761923,47.689595],[-87.011923,47.689595],[-87.011923,47.939595],[-87.511923,47.939595],[-87.511923,48.189595],[-89.261923,48.189595],[-89.261923,47.939595],[-89.511923,47.939595],[-89.511923,47.439595],[-89.761923,47.439595],[-89.761923,47.189595],[-90.261923,47.189595],[-90.261923,46.939595],[-90.511923,46.939595],[-90.511923,46.689595]]]},"properties":{"name":"Lake Superior","ownerKind":"us-state","ownerKey":"Michigan","ownerName":"Michigan"}},{"type":"Feature","geometry":{"type":"MultiPolygon","coordinates":[[[[-89.511923,47.939595],[-89.261923,47.939595],[-89.261923,48.189595],[-89.41564536755934,48.189595],[-89.511923,48.09579934887571],[-89.511923,47.939595]]],[[[-89.261923,48.189595],[-87.511923,48.189595],[-87.511923,47.939595],[-87.011923,47.939595],[-87.011923,47.689595],[-86.761923,47.689595],[-86.761923,47.439595],[-85.761923,47.439595],[-85.761923,47.189595],[-85.261923,47.189595],[-85.261923,46.939595],[-84.79857985544155,46.939595],[-84.761923,47.02137487422625],[-84.761923,47.36894162971267],[-84.85715805998719,47.439595],[-85.011923,47.439595],[-85.011923,47.55441263770288],[-85.040618,47.575701],[-85.011923,47.62196082508305],[-85.011923,47.87985314544301],[-85.261923,47.913327660928495],[-85.458097154357,47.939595],[-86.011923,47.939595],[-86.011923,48.05339108221799],[-86.09228442381509,48.189595],[-86.261923,48.189595],[-86.261923,48.47711403072935],[-86.32103,48.577294],[-86.511923,48.68416398163011],[-86.52162397845878,48.689595],[-87.511923,48.689595],[-87.511923,48.7921023768261],[-88.011923,48.90049377089676],[-88.178953,48.936703],[-88.261923,48.88868562801619],[-88.404237,48.806324],[-88.51061115478446,48.689595],[-88.511923,48.688155455023356],[-88.511923,48.439595],[-89.0707103888376,48.439595],[-89.194059,48.405469],[-89.261923,48.33935449441302],[-89.261923,48.189595]]],[[[-84.761923,46.46039210113505],[-84.604908,46.439595],[-84.511923,46.58940801668291],[-84.511923,46.81162029483835],[-84.761923,46.88637529315854],[-84.761923,46.46039210113505]]]]},"properties":{"name":"Lake Superior","ownerKind":"ca-province","ownerKey":"Ontario","ownerName":"Ontario"}},{"type":"Feature","geometry":{"type":"Polygon","coordinates":[[[31.648022,-2.329212],[31.745830824481764,-2.464511],[31.898022,-2.464511],[31.898022,-2.6750371357095672],[31.926558,-2.714511],[32.148022,-2.603125324703943],[32.148022,-2.464511],[32.62034757894383,-2.464511],[32.648022,-2.46166648005523],[32.898022,-2.4359701887127962],[32.951767,-2.430446],[32.988245758580796,-2.464511],[33.26812489014693,-2.464511],[33.398022,-2.408440858804432],[33.647177,-2.300893],[33.547569366033386,-2.214511],[33.398022,-2.214511],[33.398022,-2.0848201313560715],[33.25929277494204,-1.964511],[33.251748,-1.957968],[33.398022,-1.7562160229613557],[33.398022,-1.464511],[33.625297504215844,-1.464511],[33.648022,-1.443953256321979],[33.648022,-1.214511],[33.90164708980353,-1.214511],[34.072629,-1.059832],[34.08081732984886,-0.9645109999999999],[31.898022,-0.9645109999999999],[31.898022,-1.964511],[31.74598290231974,-1.964511],[31.67883138483025,-2.214511],[31.648022,-2.329212]]]},"properties":{"name":"Lake Victoria","ownerKind":"country","ownerKey":"TZA","ownerName":"United Republic of Tanzania"}},{"type":"Feature","geometry":{"type":"Polygon","coordinates":[[[31.898022,-0.9645109999999999],[33.898022,-0.9645109999999999],[33.898022,0.035489000000000104],[33.648022,0.035489000000000104],[33.648022,0.20497026972485202],[33.43591209809739,0.2854890000000001],[33.26125392177242,0.2854890000000001],[33.148022,0.22212423464330178],[33.148022,0.035489000000000104],[32.67887147583721,0.035489000000000104],[32.648022,0.028528693420917583],[32.398022,-0.02787669427360077],[32.272842,-0.05612],[32.14877131799776,-0.2145109999999999],[32.148022,-0.21546759365345708],[32.148022,-0.4645109999999999],[31.952941564409745,-0.4645109999999999],[31.898022,-0.5346223638294246],[31.898022,-0.9645109999999999]]]},"properties":{"name":"Lake Victoria","ownerKind":"country","ownerKey":"UGA","ownerName":"Uganda"}},{"type":"Feature","geometry":{"type":"Polygon","coordinates":[[[33.898022,-0.9645109999999999],[34.08081732984886,-0.9645109999999999],[34.1237686724117,-0.4645109999999999],[34.136242,-0.319308],[34.06929001352952,-0.2145109999999999],[33.898022,-0.2145109999999999],[33.898022,-0.9645109999999999]]]},"properties":{"name":"Lake Victoria","ownerKind":"country","ownerKey":"KEN","ownerName":"Kenya"}},{"type":"Feature","geometry":{"type":"Polygon","coordinates":[[[30.086711,61.08221838242389],[30.336711,60.93835476484778],[30.368002380599158,60.920348],[30.586711,60.920348],[30.586711,60.58566380207841],[30.7832742368704,60.420348],[30.836711,60.420348],[30.836711,60.37540601848863],[31.080528392854188,60.170348],[31.086711,60.170348],[31.086711,60.165148234898865],[31.108934,60.146458],[31.106246,59.927686],[31.336711,59.92349468876552],[31.509736,59.920348],[31.586711,60.0482869227428],[31.586711,60.170348],[31.660149569126936,60.170348],[31.69944,60.235652],[31.836711,60.23150535238828],[32.336711,60.21640147898562],[32.583882,60.208935],[32.586711,60.266253153558054],[32.586711,60.420348],[32.594316519255656,60.420348],[32.599902,60.533515],[32.815754,60.48189],[32.836711,60.50808629074986],[32.836711,60.76503186850389],[32.70018824273014,60.920348],[32.586711,60.920348],[32.586711,61.049446230259534],[32.526883,61.11751],[32.392292275562674,61.170348],[32.086711,61.170348],[32.086711,61.29031394494667],[31.836711,61.3884596385316],[31.755483896946302,61.420348],[31.336711,61.420348],[31.336711,61.584751025701465],[31.118675518329933,61.670348],[30.65837071291481,61.670348],[30.586711,61.631602064769865],[30.336711,61.496428709846576],[30.336711,61.420348],[30.19600148315448,61.420348],[30.086711,61.36125535492329],[30.086711,61.08221838242389]]]},"properties":{"name":"Lake Ladoga","ownerKind":"country","ownerKey":"RUS","ownerName":"Russia"}},{"type":"Feature","geometry":{"type":"Polygon","coordinates":[[[73.436738,45.609464],[73.56555901421366,45.488934],[73.686738,45.488934],[73.686738,45.375554181916876],[73.83275600710682,45.238934],[73.936738,45.238934],[73.936738,45.14164436383375],[74.099953,44.988934],[74.14380862665742,45.238934],[74.186738,45.483653871853186],[74.186738,45.988934],[74.27537550662969,45.988934],[74.27803,46.004066],[74.436738,46.03744661705668],[74.686738,46.090028429341956],[74.686738,46.238934],[74.83314708952629,46.238934],[74.911221,46.404661],[74.936738,46.40807465480544],[74.936738,46.488934],[75.41089306002293,46.488934],[75.436738,46.5784764029755],[75.463332,46.670614],[75.611282,46.507187],[75.686738,46.50190574334488],[75.87207189489433,46.488934],[77.686738,46.488934],[77.686738,46.35739464272143],[77.936738,46.33754143923538],[78.186738,46.31768823574932],[78.436738,46.29783503226327],[78.445062,46.297174],[78.686738,46.3367049396962],[78.889893,46.369935],[78.936738,46.40622535440152],[78.936738,46.488934],[79.0435015344696,46.488934],[79.186738,46.599897861614245],[79.186738,46.66892448280484],[79.01458308343562,46.738934],[78.92754226041495,46.738934],[78.686738,46.70204173494335],[78.436738,46.66374064239512],[78.436738,46.488934],[78.3078059889286,46.488934],[78.297009,46.468533],[78.24728254376582,46.488934],[77.936738,46.488934],[77.936738,46.61633940382631],[77.85993,46.647851],[77.686738,46.6467165740884],[77.436738,46.64507904765589],[77.186738,46.64344152122337],[77.181315,46.643406],[76.936738,46.67756211418211],[76.686738,46.71247557107106],[76.4972807585336,46.738934],[74.7702564189177,46.738934],[74.686738,46.700491896862374],[74.436738,46.58542116265849],[74.436738,46.488934],[74.22711223519097,46.488934],[74.186738,46.470350428454616],[74.186738,46.238934],[74.03192245555526,46.238934],[74.020681,46.204906],[73.936738,46.19953813838723],[73.686738,46.18355151170971],[73.686738,46.16105168865545],[73.737133,46.012747],[73.70293158076429,45.988934],[73.686738,45.97765909540957],[73.439993,45.805861],[73.43888378048544,45.738934],[73.436738,45.609464]]]},"properties":{"name":"Lake Balkhash","ownerKind":"country","ownerKey":"KAZ","ownerName":"Kazakhstan"}},{"type":"Feature","geometry":{"type":"MultiPolygon","coordinates":[[[[29.101718,-5.054006],[29.21345666582807,-5.286543],[29.351718,-5.286543],[29.351718,-4.036543],[29.215854761847773,-4.036543],[29.187810311620154,-4.286543],[29.1036769609373,-5.036543],[29.101718,-5.054006]]],[[[29.351718,-6.368696023038522],[29.43218954068803,-6.536543],[29.601718,-6.536543],[29.601718,-6.036543],[29.351718,-6.036543],[29.351718,-6.368696023038522]]],[[[29.351718,-5.536543],[29.601718,-5.536543],[29.601718,-5.286543],[29.351718,-5.286543],[29.351718,-5.536543]]],[[[29.601718,-6.812369673450668],[29.851718,-7.035579557071605],[29.852797077360695,-7.036543],[30.101718,-7.036543],[30.101718,-6.786543],[29.851718,-6.786543],[29.851718,-6.536543],[29.601718,-6.536543],[29.601718,-6.812369673450668]]],[[[30.101718,-7.258789440692541],[30.132802599455495,-7.286543],[30.147028,-7.299244],[30.20334909921073,-7.536543],[30.351718,-7.536543],[30.351718,-7.036543],[30.101718,-7.036543],[30.101718,-7.258789440692541]]],[[[30.351718,-7.916852560471447],[30.48166146416651,-8.036543],[30.601718,-8.036543],[30.601718,-7.786543],[30.351718,-7.786543],[30.351718,-7.916852560471447]]]]},"properties":{"name":"Lake Tanganyika","ownerKind":"country","ownerKey":"COD","ownerName":"Democratic Republic of the Congo"}},{"type":"Feature","geometry":{"type":"MultiPolygon","coordinates":[[[[29.351718,-6.036543],[29.601718,-6.036543],[29.601718,-6.536543],[29.851718,-6.536543],[29.851718,-6.353297352009558],[29.772433171030702,-6.286543],[29.722041,-6.244115],[29.84620907085864,-6.036543],[29.851718,-6.027333712686258],[29.851718,-5.657594938714964],[29.79249397982161,-5.536543],[29.758422,-5.466901],[29.7726205038355,-5.286543],[29.79196,-5.040881],[29.78619928803776,-5.036543],[29.601718,-5.036543],[29.601718,-4.897622701128339],[29.600085,-4.896393],[29.601718,-4.881580203588366],[29.601718,-4.536543],[29.351718,-4.536543],[29.351718,-5.286543],[29.601718,-5.286543],[29.601718,-5.536543],[29.351718,-5.536543],[29.351718,-5.5742757702642205],[29.371985,-5.616453],[29.351718,-5.6642386867561525],[29.351718,-6.036543]]],[[[29.851718,-6.786543],[30.101718,-6.786543],[30.101718,-6.563786397888084],[30.069360736734378,-6.536543],[29.851718,-6.536543],[29.851718,-6.786543]]],[[[30.101718,-7.036543],[30.351718,-7.036543],[30.351718,-7.786543],[30.601718,-7.786543],[30.601718,-7.522068916341518],[30.57276390822159,-7.286543],[30.54203046259046,-7.036543],[30.528039,-6.92273],[30.366288302438054,-6.786543],[30.101718,-6.786543],[30.101718,-7.036543]]],[[[30.601718,-8.286543],[30.851718,-8.286543],[30.851718,-8.044757879984408],[30.84767362777433,-8.036543],[30.724592942683813,-7.786543],[30.601718,-7.786543],[30.601718,-8.286543]]],[[[30.851718,-8.536543],[31.09383499795537,-8.536543],[30.970754312864848,-8.286543],[30.851718,-8.286543],[30.851718,-8.536543]]]]},"properties":{"name":"Lake Tanganyika","ownerKind":"country","ownerKey":"TZA","ownerName":"United Republic of Tanzania"}},{"type":"Feature","geometry":{"type":"Polygon","coordinates":[[[29.351718,-4.536543],[29.601718,-4.536543],[29.601718,-4.2880718277042575],[29.601129139736525,-4.286543],[29.504836362297386,-4.036543],[29.351718,-4.036543],[29.351718,-4.536543]]]},"properties":{"name":"Lake Tanganyika","ownerKind":"country","ownerKey":"BDI","ownerName":"Burundi"}},{"type":"Feature","geometry":{"type":"MultiPolygon","coordinates":[[[[30.601718,-8.53040400595759],[30.627880990941982,-8.536543],[30.851718,-8.536543],[30.851718,-8.286543],[30.601718,-8.286543],[30.601718,-8.53040400595759]]],[[[30.851718,-8.622378503995632],[31.022117,-8.786543],[31.101718,-8.759533073768086],[31.101718,-8.55255485847892],[31.09383499795537,-8.536543],[30.851718,-8.536543],[30.851718,-8.622378503995632]]]]},"properties":{"name":"Lake Tanganyika","ownerKind":"country","ownerKey":"ZMB","ownerName":"Zambia"}},{"type":"Feature","geometry":{"type":"MultiPolygon","coordinates":[[[[33.96105828015087,-9.901291],[34.097820262772274,-10.151291],[34.156592,-10.151291],[34.156592,-9.901291],[33.96105828015087,-9.901291]]],[[[34.156592,-12.515548967456606],[34.21144913409698,-12.651291],[34.312481093522386,-12.901291],[34.406592,-12.901291],[34.406592,-12.401291],[34.156592,-12.401291],[34.156592,-12.515548967456606]]],[[[34.156592,-12.151291],[34.406592,-12.151291],[34.406592,-11.651291],[34.32260286722128,-11.651291],[34.322691,-11.652983],[34.19300567598556,-11.901291],[34.156592,-11.971012127855722],[34.156592,-12.151291]]],[[[34.156592,-10.258725347070012],[34.23458224539368,-10.401291],[34.259904,-10.447579],[34.270514936535804,-10.651291],[34.28353691920717,-10.901291],[34.406592,-10.901291],[34.406592,-10.151291],[34.156592,-10.151291],[34.156592,-10.258725347070012]]],[[[34.406592,-13.488318162203965],[34.53474919146893,-13.651291],[34.656592,-13.651291],[34.656592,-13.401291],[34.406592,-13.401291],[34.406592,-13.488318162203965]]],[[[34.406592,-11.651291],[34.656592,-11.651291],[34.656592,-11.401291],[34.406592,-11.401291],[34.406592,-11.651291]]],[[[34.656592,-14.151291],[34.78390481050358,-14.151291],[34.88121,-14.012013],[34.906592,-14.039844495945264],[35.00822991308525,-14.151291],[35.156592,-14.151291],[35.156592,-14.006277400972452],[35.11648103989591,-13.901291],[35.055979,-13.742933],[34.906592,-13.70978610425026],[34.867567,-13.701127],[34.86079802178172,-13.651291],[34.656592,-13.651291],[34.656592,-14.151291]]]]},"properties":{"name":"Lake Malawi","ownerKind":"country","ownerKey":"MWI","ownerName":"Malawi"}},{"type":"Feature","geometry":{"type":"MultiPolygon","coordinates":[[[[33.906592,-9.801727],[33.96105828015087,-9.901291],[34.156592,-9.901291],[34.156592,-9.658295453888206],[34.14966674799138,-9.651291],[33.95029902001397,-9.651291],[33.906592,-9.801727]]],[[[34.156592,-10.151291],[34.406592,-10.151291],[34.406592,-9.911154623471106],[34.396839908067385,-9.901291],[34.156592,-9.901291],[34.156592,-10.151291]]],[[[34.406592,-11.401291],[34.656592,-11.401291],[34.656592,-11.137170731972764],[34.607893,-11.080512],[34.59361776901678,-10.901291],[34.573704880762584,-10.651291],[34.55379199250839,-10.401291],[34.5338791042542,-10.151291],[34.406592,-10.151291],[34.406592,-11.401291]]]]},"properties":{"name":"Lake Malawi","ownerKind":"country","ownerKey":"TZA","ownerName":"United Republic of Tanzania"}},{"type":"Feature","geometry":{"type":"Polygon","coordinates":[[[34.156592,-12.401291],[34.406592,-12.401291],[34.406592,-13.401291],[34.656592,-13.401291],[34.656592,-13.651291],[34.86079802178172,-13.651291],[34.82684175413241,-13.401291],[34.79288548648311,-13.151291],[34.656592,-13.151291],[34.656592,-12.151291],[34.76261909964023,-12.151291],[34.82600469445128,-11.901291],[34.88939028926232,-11.651291],[34.906592,-11.58344549508302],[34.906592,-11.42803261811398],[34.88360719227153,-11.401291],[34.656592,-11.401291],[34.656592,-11.651291],[34.406592,-11.651291],[34.406592,-12.151291],[34.156592,-12.151291],[34.156592,-12.401291]]]},"properties":{"name":"Lake Malawi","ownerKind":"country","ownerKey":"MOZ","ownerName":"Mozambique"}},{"type":"Feature","geometry":{"type":"Polygon","coordinates":[[[12.460149,58.506197],[12.710149,58.50811751941873],[12.830101,58.509039],[12.960149,58.53766793870282],[13.210149,58.59270326931694],[13.210149,58.756197],[13.602123844564241,58.756197],[13.710149,58.80608579585062],[13.918923,58.902503],[13.955908754961625,59.006197],[13.960149,59.01808503552788],[13.960149,59.21140435011642],[13.828110980139547,59.256197],[13.438158550084104,59.256197],[13.210149,59.13677907591783],[13.210149,59.006197],[13.042771570296006,59.006197],[13.02704,58.993531],[12.960149,58.98548532358147],[12.710149,58.95541522290077],[12.697086,58.953844],[12.522161,58.880282],[12.537767,58.775948],[12.532083858443528,58.756197],[12.460149,58.506197]]]},"properties":{"name":"Vänern","ownerKind":"country","ownerKey":"SWE","ownerName":"Sweden"}},{"type":"Feature","geometry":{"type":"Polygon","coordinates":[[[-80.932445,26.823273],[-80.706438,26.788959],[-80.6937,27.034629],[-80.72224077169855,27.038959],[-80.92125960994773,27.038959],[-80.932445,26.823273]]]},"properties":{"name":"Lake Okeechobee","ownerKind":"us-state","ownerKey":"Florida","ownerName":"Florida"}},{"type":"Feature","geometry":{"type":"Polygon","coordinates":[[[-85.88463663077026,11.897899],[-85.82453567371479,11.647899],[-85.791321,11.509737],[-85.635166,11.405805550662032],[-85.62328655997973,11.397899],[-85.385166,11.397899],[-85.385166,11.239414065698426],[-85.290137,11.176166],[-85.135166,11.166087626004831],[-84.885166,11.149829142167262],[-84.885166,11.209062536050244],[-84.97679702357198,11.397899],[-85.135166,11.397899],[-85.135166,11.599539619112763],[-85.19620905883448,11.647899],[-85.385166,11.647899],[-85.385166,11.797593999948912],[-85.51177895300263,11.897899],[-85.88463663077026,11.897899]]]},"properties":{"name":"Lago de Nicaragua","ownerKind":"country","ownerKey":"NIC","ownerName":"Nicaragua"}},{"type":"Feature","geometry":{"type":"Polygon","coordinates":[[[37.014826,12.035596],[37.065125544121386,11.963394],[37.264826,11.963394],[37.264826,11.764336770469765],[37.336357,11.713394],[37.481878,11.825092],[37.49691681215463,11.963394],[37.514826,12.128092945097716],[37.514826,12.161546174211773],[37.32070709495476,12.213394],[37.220333454648156,12.213394],[37.014826,12.035596]]]},"properties":{"name":"Lake Tana","ownerKind":"country","ownerKey":"ETH","ownerName":"Ethiopia"}},{"type":"Feature","geometry":{"type":"MultiPolygon","coordinates":[[[[-69.983656,-15.737179],[-69.91825866421907,-15.786406],[-69.733656,-15.786406],[-69.733656,-15.925363271622688],[-69.729097,-15.928795],[-69.55337027142814,-16.036406],[-69.233656,-16.036406],[-69.233656,-15.786406],[-69.483656,-15.786406],[-69.483656,-15.498658054540803],[-69.596754,-15.41048],[-69.733656,-15.383831965933403],[-69.8856,-15.354256],[-69.8688666192271,-15.536406],[-69.867978,-15.546079],[-69.877021,-15.669844],[-69.983656,-15.737179]]],[[[-69.22761435585977,-16.286406],[-69.182051,-16.401169],[-69.090842,-16.461992],[-69.001157,-16.536406],[-68.983656,-16.530974743261982],[-68.983656,-16.286406],[-69.22761435585977,-16.286406]]]]},"properties":{"name":"Lago Titicaca","ownerKind":"country","ownerKey":"PER","ownerName":"Peru"}},{"type":"Feature","geometry":{"type":"MultiPolygon","coordinates":[[[[-69.483656,-15.786406],[-69.233656,-15.786406],[-69.233656,-15.693573204545231],[-69.43524013102017,-15.536406],[-69.483656,-15.536406],[-69.483656,-15.786406]]],[[[-69.233656,-16.271188569383195],[-69.22761435585977,-16.286406],[-68.983656,-16.286406],[-68.983656,-16.530974743261982],[-68.905246,-16.506641],[-68.746238,-16.356004],[-68.77979395398815,-16.286406],[-68.90032886155785,-16.036406],[-68.983656,-16.036406],[-68.983656,-15.889231639325637],[-68.986972,-15.885903],[-69.11458778563511,-15.786406],[-69.233656,-15.786406],[-69.233656,-16.271188569383195]]]]},"properties":{"name":"Lago Titicaca","ownerKind":"country","ownerKey":"BOL","ownerName":"Bolivia"}},{"type":"Feature","geometry":{"type":"Polygon","coordinates":[[[-100.606851,53.531617],[-100.49259057530908,53.370427],[-100.356851,53.370427],[-100.356851,53.26736373735181],[-100.106851,53.210983015437215],[-99.856851,53.15460229352263],[-99.804988,53.142906],[-99.606851,53.12554327234701],[-99.548466,53.120427],[-99.403772,53.125853],[-99.393178,53.267912],[-99.606851,53.28980615633319],[-99.665513,53.295817],[-99.856851,53.36800478359217],[-99.86327122818793,53.370427],[-100.106851,53.370427],[-100.106851,53.620427],[-99.98817030682456,53.620427],[-99.910666,53.821315],[-99.89261779490626,53.870427],[-100.106851,53.870427],[-100.106851,53.9298886653388],[-100.183569,53.930352],[-100.106851,54.02628227098247],[-100.106851,54.120427],[-100.30877614456841,54.120427],[-100.3263,54.094011],[-100.356851,54.0358165536669],[-100.356851,53.78403817797616],[-100.334878,53.745247],[-100.356851,53.72798759561059],[-100.356851,53.620427],[-100.49378672002996,53.620427],[-100.606851,53.531617]]]},"properties":{"name":"Cedar Lake","ownerKind":"ca-province","ownerKey":"Manitoba","ownerName":"Manitoba"}},{"type":"Feature","geometry":{"type":"MultiPolygon","coordinates":[[[[34.277979519080006,62.19858],[34.435499927967626,61.94858],[34.51502,61.94858],[34.51502,61.843062843381496],[34.68482701743799,61.69858],[34.76502,61.69858],[34.76502,61.630346600022676],[34.857335,61.551799],[35.01502,61.46973917771889],[35.055679178217254,61.44858],[35.26502,61.44858],[35.26502,61.31698322993347],[35.42586483194454,61.19858],[35.51502,61.13294991580389],[35.578325,61.086349],[35.51502,61.09114093242184],[35.26502,61.11006492113455],[35.207288,61.114435],[35.01502,61.11552949831397],[35.01502,61.06499255294711],[35.26502,60.97830434592827],[35.350742,60.94858],[35.51502,60.96298022372887],[36.01502,61.00680904964855],[36.109455,61.015087],[36.26502,61.159075677978485],[36.26502,61.4410409064408],[36.25924499659064,61.44858],[36.0677430818043,61.69858],[36.01502,61.69858],[36.01502,61.78132261536491],[35.914320744101545,61.94858],[35.76502,61.94858],[35.76502,62.19656248765294],[35.76380533320034,62.19858],[35.714647,62.28023],[35.51502,62.44431821617495],[35.50983518454234,62.44858],[35.26502,62.44858],[35.26502,62.39812556335124],[35.463706,62.256019],[35.26502,62.20557885767818],[35.26502,62.19858],[35.23745118332669,62.19858],[35.21659,62.193284],[35.080267,62.141194],[35.01502,62.18268669234291],[34.99002787280487,62.19858],[34.277979519080006,62.19858]]],[[[35.01502,62.55295091893281],[35.139695,62.487762],[35.19447723291319,62.44858],[35.26502,62.44858],[35.26502,62.64981173180027],[35.233953,62.675348],[35.15816575654386,62.69858],[35.01502,62.69858],[35.01502,62.55295091893281]]]]},"properties":{"name":"Lake Onega","ownerKind":"country","ownerKey":"RUS","ownerName":"Russia"}},{"type":"Feature","geometry":{"type":"MultiPolygon","coordinates":[[[[-112.8681363051965,41.60146],[-112.77443013218546,41.35146],[-112.628143,41.35146],[-112.628143,41.464221167824604],[-112.83743042416204,41.60146],[-112.8681363051965,41.60146]]],[[[-112.628143,41.102587272506675],[-112.62609514201493,41.10146],[-112.378143,41.10146],[-112.378143,40.964971222602756],[-112.171933,40.85146],[-112.14342020980999,41.10146],[-112.138757,41.142347],[-112.184051,41.341249],[-112.18813958694507,41.35146],[-112.37767124391132,41.35146],[-112.378143,41.35123076330507],[-112.40533,41.33802],[-112.42986960871374,41.35146],[-112.628143,41.35146],[-112.628143,41.102587272506675]]]]},"properties":{"name":"Great Salt Lake","ownerKind":"us-state","ownerKey":"Utah","ownerName":"Utah"}},{"type":"Feature","geometry":{"type":"MultiPolygon","coordinates":[[[[-124.203634,66.0066863828303],[-123.953634,65.9924985104404],[-123.703634,65.97831063805049],[-123.453634,65.96412276566059],[-123.203634,65.94993489327068],[-122.953634,65.93574702088078],[-122.703634,65.92155914849089],[-122.453634,65.90737127610097],[-122.356222,65.901843],[-122.350109213743,65.879994],[-122.325991,65.793788],[-122.453634,65.72284981918202],[-122.453634,65.629994],[-122.62071462134077,65.629994],[-122.703634,65.58391117621301],[-122.953634,65.44497253324398],[-122.953634,65.379994],[-123.0705534758482,65.379994],[-123.179634,65.319372],[-123.203634,65.2565334410612],[-123.203634,65.17391732738004],[-123.00711148366534,65.129994],[-122.205460555589,65.129994],[-122.203634,65.13049725437743],[-121.953634,65.19937749821692],[-121.703634,65.2682577420564],[-121.703634,65.379994],[-121.29808862256213,65.379994],[-121.203634,65.40601822973538],[-121.057283,65.446341],[-120.953634,65.38286108856431],[-120.94895266293003,65.379994],[-120.945274,65.377741],[-120.953634,65.36954570630378],[-120.953634,65.129994],[-120.50824368214217,65.129994],[-120.453634,65.14611540923566],[-120.203634,65.21991829822566],[-120.203634,65.379994],[-119.703634,65.379994],[-119.703634,65.58836167198358],[-119.73015750185516,65.629994],[-119.745684,65.654365],[-119.720052,65.734799],[-119.703634,65.73512591439851],[-118.703634,65.75503786460655],[-118.703634,65.879994],[-117.95915444172142,65.879994],[-117.953634,65.8894871323709],[-117.953634,66.129994],[-117.81377456325433,66.129994],[-117.759292,66.223684],[-117.703634,66.29825824331408],[-117.703634,66.55575609620544],[-118.203634,66.53746402742216],[-118.453634,66.52831799303051],[-118.703634,66.51917195863888],[-119.203634,66.5008798898556],[-119.203634,66.379994],[-120.203634,66.379994],[-120.203634,66.629994],[-119.84763961520822,66.629994],[-119.703634,66.70202624093758],[-119.703634,66.879994],[-120.07780828714331,66.879994],[-120.203634,66.8609666834665],[-120.453634,66.823161778369],[-120.703634,66.78535687327148],[-120.953634,66.74755196817398],[-120.953634,66.629994],[-121.73103291074166,66.629994],[-121.953634,66.59633234778394],[-122.203634,66.55852744268644],[-122.453634,66.52072253758892],[-122.453634,66.379994],[-123.38425753434001,66.379994],[-123.453634,66.36950291719889],[-123.703634,66.33169801210138],[-123.953634,66.29389310700388],[-124.203634,66.25608820190637],[-124.203634,66.0066863828303]]],[[[-121.203634,64.9247067422657],[-120.953634,64.99850963125569],[-120.953634,65.129994],[-121.19800013731407,65.129994],[-121.203634,65.12447113404839],[-121.203634,64.9247067422657]]]]},"properties":{"name":"Great Bear Lake","ownerKind":"ca-province","ownerKey":"Northwest Territories","ownerName":"Northwest Territories"}},{"type":"Feature","geometry":{"type":"MultiPolygon","coordinates":[[[[-111.199486,58.685565],[-111.086263,58.560173],[-110.949486,58.605747197730295],[-110.699486,58.68904738294107],[-110.699486,58.810173],[-111.02866883953011,58.810173],[-111.160005,58.75985],[-111.199486,58.685565]]],[[[-110.699486,58.810173],[-110.33596454817955,58.810173],[-110.199486,58.85564775336262],[-109.949486,58.93894793857339],[-109.949486,59.060173],[-110.37620296671903,59.060173],[-110.449486,59.03209374086372],[-110.699486,58.93630329019888],[-110.699486,58.810173]]]]},"properties":{"name":"Lake Athabasca","ownerKind":"ca-province","ownerKey":"Alberta","ownerName":"Alberta"}},{"type":"Feature","geometry":{"type":"Polygon","coordinates":[[[-109.949486,59.060173],[-109.3789644250288,59.060173],[-109.199486,59.07491666218531],[-108.949486,59.095453479051926],[-108.449486,59.136527112785174],[-108.199486,59.1570639296518],[-107.949486,59.17760074651842],[-107.949486,59.310173],[-107.699486,59.310173],[-107.699486,59.424070992439496],[-107.949486,59.44667833801663],[-108.449486,59.49189302917091],[-108.699486,59.514500374748046],[-108.949486,59.53710772032518],[-109.09672,59.550422],[-109.199486,59.51104599418791],[-109.449486,59.415255543523074],[-109.449486,59.310173],[-109.72373709390796,59.310173],[-109.949486,59.223674642193394],[-109.949486,59.060173]]]},"properties":{"name":"Lake Athabasca","ownerKind":"ca-province","ownerKey":"Saskatchewan","ownerName":"Saskatchewan"}},{"type":"Feature","geometry":{"type":"MultiPolygon","coordinates":[[[[-103.282502,56.409942],[-103.20416,56.345398],[-103.032502,56.46504215110748],[-103.032502,56.595398],[-103.19817086323461,56.595398],[-103.282502,56.409942]]],[[[-102.782502,57.24180985040183],[-102.68328198076063,57.095398],[-102.532502,57.095398],[-102.532502,56.845398],[-102.48679104209003,56.845398],[-102.282502,56.987785707076995],[-102.282502,57.095398],[-102.12810656313505,57.095398],[-102.032502,57.162033559066835],[-102.032502,58.01703818277084],[-102.128748,58.019146],[-102.282502,57.89460693234931],[-102.282502,57.845398],[-102.34325458412611,57.845398],[-102.532502,57.69210965154574],[-102.532502,57.595398],[-102.65190070397514,57.595398],[-102.782502,57.48961237074218],[-102.782502,57.24180985040183]]]]},"properties":{"name":"Reindeer Lake","ownerKind":"ca-province","ownerKey":"Saskatchewan","ownerName":"Saskatchewan"}},{"type":"Feature","geometry":{"type":"Polygon","coordinates":[[[-102.032502,57.345398],[-101.96987963690754,57.345398],[-101.970902,57.34867],[-101.782502,57.57782101696741],[-101.782502,57.96723670423802],[-101.895144,58.01403],[-102.032502,58.01703818277084],[-102.032502,57.345398]]]},"properties":{"name":"Reindeer Lake","ownerKind":"ca-province","ownerKey":"Manitoba","ownerName":"Manitoba"}},{"type":"Feature","geometry":{"type":"Polygon","coordinates":[[[-84.930004,45.789996],[-84.680004,45.731168352941175],[-84.67509409369345,45.730013],[-84.180004,45.730013],[-84.180004,45.61351305882353],[-84.080004,45.589982],[-83.930004,45.51093345174498],[-83.87133033850802,45.480013],[-83.680004,45.480013],[-83.680004,45.37918587131996],[-83.430004,45.24743829089494],[-83.39693832464049,45.230013],[-83.339998,45.200006],[-83.3006689985449,44.980013],[-83.180004,44.980013],[-83.180004,44.480013],[-83.31197055123701,44.480013],[-83.349997,44.29001],[-83.430004,44.23181842267265],[-83.430004,44.230013],[-83.43248625702765,44.230013],[-83.680004,44.04998565389196],[-83.680004,43.980013],[-83.77620868076404,43.980013],[-83.89999,43.889983],[-83.86738819231198,43.730013],[-83.50907267925382,43.730013],[-83.430004,43.78612486167248],[-83.430004,43.980013],[-83.15679119679591,43.980013],[-83.029991,44.069998],[-82.930004,44.04297632699194],[-82.69702382241934,43.980013],[-82.680004,43.980013],[-82.680004,43.97541336128626],[-82.659988,43.970004],[-82.5855114303653,43.730013],[-82.430004,43.730013],[-82.430004,43.230013],[-82.180004,43.230013],[-82.180004,44.480013],[-82.430004,44.480013],[-82.430004,45.230013],[-82.680004,45.230013],[-82.680004,45.480013],[-83.430004,45.480013],[-83.430004,46.230013],[-83.930004,46.230013],[-83.930004,46.08296371443072],[-83.839192,46.010215],[-83.930004,46.00091243003341],[-83.930004,45.980013],[-84.13402493690359,45.980013],[-84.180004,45.97530301176659],[-84.430004,45.94969359349977],[-84.680004,45.92408417523294],[-84.719991,45.919988],[-84.753555,45.924484],[-84.930004,45.789996]]]},"properties":{"name":"Lake Huron","ownerKind":"us-state","ownerKey":"Michigan","ownerName":"Michigan"}},{"type":"Feature","geometry":{"type":"MultiPolygon","coordinates":[[[[-84.180004,46.28323657052551],[-84.11356517803064,46.230013],[-83.930004,46.230013],[-83.930004,46.330543550642155],[-83.95257,46.334278],[-84.08162691775966,46.480013],[-84.180004,46.480013],[-84.180004,46.28323657052551]]],[[[-83.430004,45.480013],[-82.680004,45.480013],[-82.680004,45.230013],[-82.430004,45.230013],[-82.430004,44.480013],[-82.180004,44.480013],[-82.180004,43.230013],[-81.94087685491125,43.230013],[-81.930004,43.23557029705395],[-81.782729,43.310845],[-81.73271135758287,43.480013],[-81.700176,43.590053],[-81.71565164859375,43.730013],[-81.74329463336396,43.980013],[-81.752653,44.064649],[-81.680004,44.1492618253909],[-81.680004,44.230013],[-81.61067063290022,44.230013],[-81.430004,44.44043178434045],[-81.430004,44.480013],[-81.39601936796383,44.480013],[-81.275679,44.620171],[-81.29776636509897,44.730013],[-81.430004,44.730013],[-81.430004,45.230013],[-81.39830789338036,45.230013],[-81.402338,45.250055],[-81.38598302122857,45.230013],[-81.180004,45.230013],[-81.180004,44.97759863730615],[-80.97796538897046,44.730013],[-80.680004,44.730013],[-80.680004,44.59475366596939],[-80.430004,44.55238875146951],[-80.180004,44.510023836969616],[-80.085003,44.493925],[-79.930004,44.653064698708995],[-79.930004,44.730013],[-79.85505783729792,44.730013],[-79.762929,44.824603],[-79.89440448684971,44.980013],[-79.930004,44.980013],[-79.930004,45.02209324226609],[-80.10590227793409,45.230013],[-80.180004,45.230013],[-80.180004,45.31760460283184],[-80.31740006901849,45.480013],[-80.430004,45.480013],[-80.430004,45.60882867971456],[-80.55603992733904,45.730013],[-80.680004,45.730013],[-80.680004,45.84920521925366],[-80.736798,45.903813],[-80.930004,45.945655186089404],[-81.08865096410045,45.980013],[-81.680004,45.980013],[-81.680004,46.10367304620767],[-81.930004,46.13515716397882],[-82.180004,46.16664128174996],[-82.430004,46.19812539952111],[-82.441991,46.199635],[-82.680004,46.2029260878423],[-83.180004,46.20983976029359],[-83.202513,46.210151],[-83.32253227166531,46.230013],[-83.430004,46.230013],[-83.430004,45.480013]]],[[[-82.430004,42.98002940098406],[-82.430002,42.980013],[-82.180004,43.10779113741034],[-82.180004,43.230013],[-82.430004,43.230013],[-82.430004,42.98002940098406]]]]},"properties":{"name":"Lake Huron","ownerKind":"ca-province","ownerKey":"Ontario","ownerName":"Ontario"}},{"type":"Feature","geometry":{"type":"MultiPolygon","coordinates":[[[[-87.988319,44.733316],[-87.88222146495464,44.640714],[-87.82356033539818,44.640714],[-87.738319,44.715457959743375],[-87.738319,44.890714],[-87.81716540218429,44.890714],[-87.988319,44.733316]]],[[[-87.902148,43.230514],[-87.87914727214802,43.140714],[-87.738319,43.140714],[-87.738319,42.390714],[-86.988319,42.390714],[-86.988319,43.140714],[-87.238319,43.140714],[-87.238319,43.640714],[-86.988319,43.640714],[-86.988319,44.390714],[-86.738319,44.390714],[-86.738319,44.890714],[-86.488319,44.890714],[-86.488319,45.390714],[-87.238319,45.390714],[-87.238319,45.153883515808545],[-87.118062,45.259331],[-86.988319,45.26238103964538],[-86.967477,45.262871],[-86.988319,45.231961891804126],[-87.04984741903202,45.140714],[-87.21842232475173,44.890714],[-87.238319,44.86120682756036],[-87.238319,44.640714],[-87.38699723047144,44.640714],[-87.48636,44.493357],[-87.488319,44.48731258656554],[-87.488319,44.140714],[-87.60065192335874,44.140714],[-87.68167715522122,43.890714],[-87.712212,43.7965],[-87.738319,43.71870433987238],[-87.738319,43.390714],[-87.84838739956112,43.390714],[-87.902148,43.230514]]],[[[-87.738319,44.890714],[-87.53844921842347,44.890714],[-87.488319,44.93467073777596],[-87.488319,45.140714],[-87.5530519237882,45.140714],[-87.596431,45.093708],[-87.738319,44.96322352459887],[-87.738319,44.890714]]]]},"properties":{"name":"Lake Michigan","ownerKind":"us-state","ownerKey":"Wisconsin","ownerName":"Wisconsin"}},{"type":"Feature","geometry":{"type":"Polygon","coordinates":[[[-87.738319,42.12222309305501],[-87.61960562665786,41.890714],[-87.238319,41.890714],[-87.238319,42.140714],[-86.988319,42.140714],[-86.988319,42.390714],[-87.738319,42.390714],[-87.738319,42.12222309305501]]]},"properties":{"name":"Lake Michigan","ownerKind":"us-state","ownerKey":"Illinois","ownerName":"Illinois"}},{"type":"Feature","geometry":{"type":"Polygon","coordinates":[[[-87.488319,41.68060186089453],[-87.434218,41.640714],[-87.238319,41.643857406013446],[-87.094446,41.646166],[-86.988319,41.689408792537314],[-86.824436,41.756185],[-86.738319,41.81496627342978],[-86.738319,41.890714],[-86.988319,41.890714],[-86.988319,42.140714],[-87.238319,42.140714],[-87.238319,41.890714],[-87.488319,41.890714],[-87.488319,41.68060186089453]]]},"properties":{"name":"Lake Michigan","ownerKind":"us-state","ownerKey":"Indiana","ownerName":"Indiana"}},{"type":"Feature","geometry":{"type":"MultiPolygon","coordinates":[[[[-87.488319,45.140714],[-87.25333810144876,45.140714],[-87.238319,45.153883515808545],[-87.238319,45.390714],[-87.32234160908476,45.390714],[-87.488319,45.21085924239132],[-87.488319,45.140714]]],[[[-87.238319,43.140714],[-86.988319,43.140714],[-86.988319,41.890714],[-86.62734544348392,41.890714],[-86.621916,41.89442],[-86.488319,42.05481665049795],[-86.488319,42.140714],[-86.41677368926065,42.140714],[-86.238319,42.35496682321505],[-86.238319,43.134477824182255],[-86.24166175307028,43.140714],[-86.37566828078721,43.390714],[-86.488319,43.390714],[-86.488319,43.600873014512246],[-86.50967480850414,43.640714],[-86.520011,43.659997],[-86.49296101187305,43.890714],[-86.488319,43.930307032288546],[-86.488319,44.390714],[-86.30726643537234,44.390714],[-86.238319,44.52034724959948],[-86.238319,44.640714],[-86.16037809035328,44.640714],[-85.988319,44.87226352760099],[-85.988319,44.890714],[-85.97460888134654,44.890714],[-85.959838,44.910592],[-85.738319,45.04323160230439],[-85.738319,45.140714],[-85.57551541132835,45.140714],[-85.559992,45.150009],[-85.55741798848943,45.140714],[-85.35039633065405,45.140714],[-85.290447,45.308242],[-85.238319,45.332302113712345],[-85.238319,45.390714],[-85.11176536667945,45.390714],[-85.069996,45.409993],[-84.988319,45.63170213360049],[-84.988319,45.890714],[-86.08320317719848,45.890714],[-86.238319,45.850938330816255],[-86.319997,45.829994],[-86.488319,45.80771765349039],[-86.738319,45.77463174298907],[-86.738319,45.640714],[-87.09163129438133,45.640714],[-87.238319,45.48176173793141],[-87.238319,45.390714],[-86.488319,45.390714],[-86.488319,44.890714],[-86.738319,44.890714],[-86.738319,44.390714],[-86.988319,44.390714],[-86.988319,43.640714],[-87.238319,43.640714],[-87.238319,43.140714]]]]},"properties":{"name":"Lake Michigan","ownerKind":"us-state","ownerKey":"Michigan","ownerName":"Michigan"}},{"type":"Feature","geometry":{"type":"Polygon","coordinates":[[[58.221012,44.84671],[58.229111,44.796647],[58.237946,44.765726],[58.256351,44.731123],[58.281383,44.689159],[58.29060166761378,44.673487],[58.316163,44.630032],[58.321139,44.603021],[58.313776,44.570627],[58.302733,44.56032],[58.289481,44.563265],[58.276229,44.564737],[58.262241,44.557375],[58.246044,44.538969],[58.236776,44.524463],[58.233528,44.506576],[58.235001,44.46093],[58.244572,44.441788],[58.260032,44.431481],[58.27807,44.426696],[58.304574,44.423751],[58.344299,44.423487],[58.364275,44.42472],[58.416847,44.443997],[58.471012,44.493347151675216],[58.471012,44.673487],[58.55043768297281,44.673487],[58.578816,44.756155],[58.562619,44.772352],[58.595013,44.772352],[58.61121,44.790021],[58.624462,44.817997],[58.622989,44.854808],[58.609737,44.876895],[58.578816,44.896037],[58.567036,44.915178],[58.568101464163824,44.923487],[58.568877,44.929535],[58.588019,44.950149],[58.592436,44.973708],[58.588019,44.989905],[58.568877,45.004629],[58.54679,45.007574],[58.643971,45.072362],[58.670475,45.103283],[58.682255,45.129787],[58.683727,45.148929],[58.67467926958822,45.173487],[58.663113,45.204881],[58.641027,45.243165],[58.629247,45.263779],[58.629247,45.302063],[58.638082,45.353598],[58.65736158304255,45.423487],[58.54863223373102,45.423487],[58.548291,45.422776],[58.549367,45.40771],[58.546054,45.402925],[58.532434,45.395195],[58.523599,45.389673],[58.499304,45.364273],[58.489858,45.360817],[58.487399,45.358379],[58.471012,45.34947282685996],[58.471012,45.173487],[58.378218792701425,45.173487],[58.37249,45.130523],[58.357029,45.103283],[58.326844,45.076779],[58.312075,45.06201],[58.311666,45.059033],[58.304942,45.049539],[58.299788,45.028925],[58.300157,45.015631],[58.2858,44.988064],[58.281383,44.963769],[58.262977,44.945363],[58.24739870770555,44.923487],[58.236509,44.908195],[58.235016,44.901275],[58.227638,44.887938],[58.222485,44.869533],[58.221012,44.84671]]]},"properties":{"name":"South Aral Sea","ownerKind":"country","ownerKey":"UZB","ownerName":"Uzbekistan"}},{"type":"Feature","geometry":{"type":"MultiPolygon","coordinates":[[[[58.54863223373102,45.423487],[58.65736158304255,45.423487],[58.661641,45.439],[58.671948,45.459614],[58.710231,45.486118],[58.721012,45.49499621724193],[58.721012,45.673487],[58.647192,45.673487],[58.647192,45.668977],[58.640997,45.657432],[58.64065,45.654391],[58.635781,45.639528],[58.639536,45.624259],[58.639546,45.62361],[58.638663,45.615662],[58.638423,45.614882],[58.639462,45.594618],[58.638358,45.590201],[58.634309,45.587256],[58.614062,45.583575],[58.604361,45.57914],[58.60275,45.5771],[58.600395,45.570919],[58.596569,45.557967],[58.592644,45.548691],[58.580288,45.538758],[58.57403,45.532132],[58.571454,45.524033],[58.570349,45.507468],[58.56446,45.489063],[58.557465,45.480228],[58.553784,45.470657],[58.552552,45.464575],[58.553416,45.449307],[58.549013,45.43252],[58.549176,45.42462],[58.54863223373102,45.423487]]],[[[58.721012,45.673487],[58.89648071376299,45.673487],[58.901649,45.689315],[58.903121,45.739378],[58.909011,45.774716],[58.909485,45.775277],[58.909747,45.790729],[58.914165,45.794779],[58.924472,45.796619],[58.930152,45.796223],[58.959074,45.810055],[58.971012,45.81418755108404],[58.971012,45.90334999295386],[58.9657,45.904844],[58.945822,45.903371],[58.930361,45.907052],[58.903857,45.911838],[58.892814,45.91147],[58.886188,45.912942],[58.87993,45.918096],[58.870728,45.921409],[58.861525,45.921409],[58.849377,45.918096],[58.837229,45.912942],[58.822505,45.903371],[58.81772,45.896377],[58.81367,45.881653],[58.814039,45.874659],[58.821401,45.861407],[58.839438,45.841897],[58.840542,45.837111],[58.838334,45.834166],[58.832076,45.834534],[58.815879,45.840056],[58.79821,45.844473],[58.7787,45.848155],[58.77097,45.847418],[58.765816,45.844473],[58.758454,45.844105],[58.751092,45.848891],[58.745938,45.851468],[58.738944,45.850731],[58.727164,45.845578],[58.721012,45.84133009573092],[58.721012,45.673487]]]]},"properties":{"name":"South Aral Sea","ownerKind":"country","ownerKey":"KAZ","ownerName":"Kazakhstan"}},{"type":"Feature","geometry":{"type":"Polygon","coordinates":[[[59.97736,46.481305],[59.98325,46.454801],[59.988403,46.437868],[59.995029,46.428297],[60.003864,46.425352],[60.013435,46.423879],[60.023006,46.41799],[60.054663,46.408419],[60.049878,46.403633],[60.065706,46.392222],[60.077118,46.381915],[60.102149,46.369031],[60.133439,46.356515],[60.153317,46.353938],[60.169882,46.354675],[60.176876,46.359092],[60.183612,46.367752],[60.196754,46.374921],[60.221785,46.378602],[60.22736,46.37869646324562],[60.265222,46.379338],[60.287309,46.382283],[60.30277,46.388909],[60.318966,46.397007],[60.331482,46.405106],[60.348415,46.402897],[60.380809,46.388909],[60.41762,46.368295],[60.440443,46.352834],[60.46407438859963,46.335954],[60.67253319424069,46.335954],[60.684868,46.339582],[60.705814,46.375191],[60.722416,46.374185],[60.722416,46.363877],[60.72736,46.35213363576159],[60.728305,46.349889],[60.737876,46.339582],[60.7395023975644,46.335954],[60.747447,46.318232],[60.810026,46.233566],[60.824808,46.201046],[60.824905,46.198503],[60.82255,46.184668],[60.816663,46.170538],[60.807538,46.158764],[60.796057,46.148461],[60.752342,46.117724],[60.782878,46.085954],[60.862482,46.090003],[60.868279,46.112458],[60.896256,46.118348],[60.946319,46.140434],[60.976685,46.16988],[60.97736,46.17014213839084],[61.003233,46.18019],[61.040555,46.18019],[61.095035,46.19197],[61.120067,46.217001],[61.165713,46.215529],[61.179061,46.223959],[61.188445,46.225879],[61.200808,46.230883],[61.206065,46.234577],[61.217064,46.236879],[61.22736,46.24665967558574],[61.22736,46.335954],[60.97736,46.335954],[60.97736,46.46064719920663],[60.946871,46.459954],[60.892391,46.473206],[60.839383,46.508545],[60.812879,46.547565],[60.784166,46.566706],[60.776068,46.581431],[60.77730166958491,46.585954],[60.66156555087676,46.585954],[60.647781,46.581063],[60.629744,46.5737],[60.606185,46.56597],[60.580049,46.563025],[60.558698,46.565602],[60.535507,46.575541],[60.518630624074945,46.585954],[60.45371191099335,46.585954],[60.453921,46.573614],[60.428993,46.52728],[60.421025,46.519312],[60.418082,46.504104],[60.417505,46.502875],[60.416218,46.500016],[60.410868,46.482523],[60.405447,46.489148],[60.405933,46.498422],[60.394889,46.544068],[60.38311,46.579406],[60.38041368263776,46.585954],[60.0135935,46.585954],[60.011045,46.584255],[60.004807,46.575878],[60.003771,46.573447],[60.001655,46.57186],[59.989876,46.550509],[59.981777,46.507809],[59.97736,46.481305]]]},"properties":{"name":"North Aral Sea","ownerKind":"country","ownerKey":"KAZ","ownerName":"Kazakhstan"}},{"type":"Feature","geometry":{"type":"MultiPolygon","coordinates":[[[[46.707051,44.503485],[46.720797,44.451628],[46.753095,44.420416],[46.915514,44.387084],[46.957051,44.37018285203609],[46.97055047326124,44.36469],[47.207051,44.36469],[47.207051,44.207060993298334],[47.229862,44.192342],[47.29694632572183,44.11469],[47.457051,44.11469],[47.457051,43.86469],[47.61322954072257,43.86469],[47.646322,43.884376],[47.64165865314878,43.86469],[47.707051,43.86469],[47.707051,43.61469],[47.5442290940128,43.61469],[47.508708,43.509722],[47.489691,43.381668],[47.4930858055718,43.36469],[47.511912,43.270537],[47.512945,43.21868],[47.484792745109786,43.11469],[47.463232,43.035048],[47.489122,42.999598],[47.52881,42.967326],[47.634643,42.903299],[47.665754422713924,42.86469],[47.707051,42.86469],[47.707051,42.813441313397036],[47.709264,42.810695],[47.727816,42.680522],[47.769622,42.644529],[47.82021120809304,42.61469],[47.957051,42.61469],[47.957051,42.47767109356589],[48.06908764937074,42.36469],[48.207051,42.36469],[48.207051,42.205845302318366],[48.228405,42.180992],[48.27761595260451,42.11469],[48.457051,42.11469],[48.457051,41.912474375243626],[48.476556,41.905298],[48.5408110306694,41.86469],[48.957051,41.86469],[48.957051,42.11469],[49.457051,42.11469],[49.457051,42.36469],[49.957051,42.36469],[49.957051,42.61469],[49.707051,42.61469],[49.707051,42.86469],[49.457051,42.86469],[49.457051,43.36469],[49.207051,43.36469],[49.207051,43.61469],[48.957051,43.61469],[48.957051,44.36469],[48.707051,44.36469],[48.707051,44.86469],[49.207051,44.86469],[49.207051,45.11469],[49.457051,45.11469],[49.457051,45.36469],[49.957051,45.36469],[49.957051,45.86469],[49.707051,45.86469],[49.707051,46.11469],[48.852936657706195,46.11469],[48.80992,46.10052],[48.742741,46.10052],[48.707051,46.091916176842744],[48.707051,45.97196018000174],[48.749614,45.920608],[48.729512,45.896785],[48.707051,45.89229596926023],[48.707051,45.86469],[48.38456818160765,45.86469],[48.257499,45.777723],[48.207051,45.756841833680404],[48.207051,45.61469],[47.640233213447026,45.61469],[47.633093,45.584065],[47.59728827021649,45.61469],[47.51382006504812,45.61469],[47.524056,45.601506],[47.529378,45.530089],[47.514547,45.490919],[47.488606,45.454952],[47.457051,45.43471831647365],[47.457051,45.11469],[47.2752286881741,45.11469],[47.221387,45.024177],[47.207051,45.01111107512962],[47.207051,44.86469],[47.100548466128416,44.86469],[47.083824,44.816774],[47.039331,44.837935],[47.01370138754398,44.86469],[46.99854995920924,44.86469],[46.983779,44.82574],[46.95732,44.782357],[46.957051,44.78220834161646],[46.957051,44.61469],[46.73814728420789,44.61469],[46.716043,44.56064],[46.707051,44.503485]]],[[[47.457051,43.59300882481774],[47.462664,43.555223],[47.483956546121526,43.61469],[47.457051,43.61469],[47.457051,43.59300882481774]]]]},"properties":{"name":"Caspian Sea","ownerKind":"country","ownerKey":"RUS","ownerName":"Russia"}},{"type":"Feature","geometry":{"type":"Polygon","coordinates":[[[48.707051,41.74468120809194],[48.823718,41.629604],[48.83696445057748,41.61469],[48.957051,41.61469],[48.957051,41.47948617406856],[49.050732,41.374012],[49.057941114479604,41.36469],[49.207051,41.36469],[49.207051,41.05988564643464],[49.226381,41.026333],[49.39069768450846,40.86469],[49.457051,40.86469],[49.457051,40.79948108681404],[49.556076,40.716249],[49.707051,40.615935385878096],[49.70892534312472,40.61469],[50.207051,40.61469],[50.207051,40.4886126990812],[50.24823,40.461717],[50.306935,40.411978],[50.32793743195356,40.36469],[50.365691,40.279686],[50.207051,40.31065099199136],[50.143431,40.323069],[49.957051,40.3173599553033],[49.919052,40.316196],[49.792083,40.287619],[49.707051,40.26097977781022],[49.707051,40.11469],[49.49637122155801,40.11469],[49.477218,40.087062],[49.457051,40.00656209090909],[49.457051,39.61469],[49.326864298599034,39.61469],[49.324307,39.608177],[49.32746,39.501284],[49.367147,39.398629],[49.364225551399784,39.36469],[49.36291,39.349407],[49.321104,39.328788],[49.269272,39.28538],[49.21362599763076,39.11469],[49.207051,39.094521680663306],[49.199922,39.072654],[49.165557,39.030331],[49.121116,39.003873],[49.10892,39.029272],[49.111556,39.084824],[49.052168640364066,39.11469],[48.99543290086489,39.11469],[48.961797,39.07901],[48.957051,39.0632811267701],[48.957051,38.36469],[50.457051,38.36469],[50.457051,38.61469],[51.207051,38.61469],[51.207051,39.11469],[51.457051,39.11469],[51.457051,41.11469],[51.207051,41.11469],[51.207051,41.36469],[50.957051,41.36469],[50.957051,41.61469],[50.707051,41.61469],[50.707051,41.86469],[50.457051,41.86469],[50.457051,42.11469],[50.207051,42.11469],[50.207051,42.36469],[49.457051,42.36469],[49.457051,42.11469],[48.957051,42.11469],[48.957051,41.86469],[48.707051,41.86469],[48.707051,41.74468120809194]]]},"properties":{"name":"Caspian Sea","ownerKind":"country","ownerKey":"AZE","ownerName":"Azerbaijan"}},{"type":"Feature","geometry":{"type":"Polygon","coordinates":[[[48.707051,44.36469],[48.957051,44.36469],[48.957051,43.61469],[49.207051,43.61469],[49.207051,43.36469],[49.457051,43.36469],[49.457051,42.86469],[49.707051,42.86469],[49.707051,42.61469],[49.957051,42.61469],[49.957051,42.36469],[50.207051,42.36469],[50.207051,42.11469],[50.457051,42.11469],[50.457051,41.86469],[50.707051,41.86469],[50.707051,41.61469],[50.957051,41.61469],[50.957051,41.36469],[51.457051,41.36469],[51.457051,41.61469],[52.457051,41.61469],[52.457051,42.36469],[52.58905094886912,42.36469],[52.61837,42.428108],[52.638472,42.555646],[52.62641741401,42.61469],[52.596666,42.760414],[52.550105,42.805398],[52.493985,42.820229],[52.457051,42.82283087335675],[52.434195,42.824441],[52.324124,42.815992],[52.27281,42.799584],[52.207051,42.85087193614149],[52.18933412290116,42.86469],[52.03111891769631,42.86469],[52.01882,42.860433],[51.960581,42.850382],[51.957051,42.85145884084902],[51.91367783873339,42.86469],[51.707051,42.86469],[51.707051,43.095898147464034],[51.700235,43.103855],[51.68350738883893,43.11469],[51.207051,43.11469],[51.207051,43.60002499550323],[51.186883281646494,43.61469],[50.957051,43.61469],[50.957051,43.92968511975789],[50.939816,43.958454],[50.867174831504585,44.11469],[50.707051,44.11469],[50.707051,44.25641791145849],[50.684793,44.264844],[50.471524,44.294997],[50.457051,44.298164652106955],[50.331274,44.325693],[50.275722,44.355329],[50.271482100231786,44.36469],[50.207051,44.36469],[50.207051,44.61469],[50.38453938917374,44.61469],[50.409616,44.62415],[50.457051,44.62590616467459],[50.652495,44.633142],[50.707051,44.63203013284218],[50.860441,44.628904],[50.88765236548193,44.61469],[51.207051,44.61469],[51.207051,44.71593331307374],[51.057845,44.811477],[51.020793,44.8538],[51.01893819841793,44.86469],[50.957051,44.86469],[50.957051,45.11469],[51.207051,45.11469],[51.207051,45.36469],[51.614186991591886,45.36469],[51.707051,45.39190591806054],[51.732533,45.399374],[51.957051,45.391489963585684],[52.048947,45.388263],[52.207051,45.395128463830325],[52.426805,45.404671],[52.457051,45.40298389580935],[52.531037,45.398857],[52.67904604890424,45.36469],[52.957051,45.36469],[52.957051,45.453631681509414],[52.837426,45.496732],[52.773916,45.572955],[52.79692859446625,45.61469],[52.887708,45.779325],[52.957051,45.86415405547583],[52.957051,46.11469],[53.103188900910034,46.11469],[53.135341,46.191548],[53.114777876176625,46.36469],[52.957051,46.36469],[52.957051,46.61469],[53.136080699678445,46.61469],[53.170274,46.668857],[53.13746,46.741876],[53.069195,46.856184],[53.061188736236645,46.86469],[52.25743100755883,46.86469],[52.207051,46.84643401840963],[52.18868,46.839777],[52.138399,46.828666],[52.085483,46.839777],[52.055454038104926,46.86469],[51.707051,46.86469],[51.707051,46.96739283904428],[51.650005,47.018086],[51.615072,47.029739],[51.457051,47.06273033455004],[51.290699,47.097461],[51.207051,47.10689196741695],[51.177941,47.110174],[50.957051,47.050742820184816],[50.920282,47.04085],[50.732955,46.951424],[50.707051,46.94520059777761],[50.707051,46.86469],[50.399458253239004,46.86469],[50.306418,46.794793],[50.207051,46.74704012928113],[50.207051,46.61469],[49.94162110266898,46.61469],[49.886289,46.595812],[49.760302,46.571473],[49.707051,46.569942620326515],[49.631731,46.567778],[49.584653,46.545015],[49.457051,46.538158636396886],[49.457051,46.36469],[49.2172074397995,46.36469],[49.23222,46.337069],[49.245966,46.291542],[49.207051,46.288300480864216],[49.207051,46.11469],[49.707051,46.11469],[49.707051,45.86469],[49.957051,45.86469],[49.957051,45.36469],[49.457051,45.36469],[49.457051,45.11469],[49.207051,45.11469],[49.207051,44.86469],[48.707051,44.86469],[48.707051,44.36469]]]},"properties":{"name":"Caspian Sea","ownerKind":"country","ownerKey":"KAZ","ownerName":"Kazakhstan"}},{"type":"Feature","geometry":{"type":"Polygon","coordinates":[[[48.957051,37.89955218673069],[48.959679,37.889961],[48.972030280385006,37.86469],[49.015282,37.776196],[49.08086,37.667727],[49.15226916516628,37.61469],[49.457051,37.61469],[49.457051,37.49996903647509],[49.470345,37.496807],[49.707051,37.4816734964754],[49.72697,37.4804],[49.957051,37.448221537402404],[49.980443,37.44495],[50.130201,37.407381],[50.176245,37.38038],[50.1907112824257,37.36469],[50.207051,37.36469],[50.207051,37.34696808906279],[50.213814,37.339633],[50.338199,37.149128],[50.38770775672603,37.11469],[50.457051,37.11469],[50.457051,37.06645524781093],[50.532916,37.013684],[50.707051,36.92381273752394],[50.82160750688643,36.86469],[51.207051,36.86469],[51.207051,36.72516523333795],[51.457051,36.6754098624544],[51.707051,36.62565449157086],[51.762143,36.61469],[51.957051,36.61781889665272],[52.190282,36.621563],[52.207051,36.62506380381194],[52.707051,36.729447005313],[52.707051,36.86469],[53.354870729334685,36.86469],[53.373983,36.86868],[53.457051,36.88162704878303],[53.707051,36.92059226036579],[53.767706,36.930046],[53.915345,36.930046],[53.827495,36.881393],[53.739306779052775,36.86469],[53.957051,36.86469],[53.957051,37.11469],[53.457051,37.11469],[53.457051,37.36469],[52.957051,37.36469],[52.957051,37.61469],[52.457051,37.61469],[52.457051,37.86469],[52.207051,37.86469],[52.207051,38.11469],[51.707051,38.11469],[51.707051,38.36469],[51.457051,38.36469],[51.457051,38.61469],[50.457051,38.61469],[50.457051,38.36469],[48.957051,38.36469],[48.957051,37.89955218673069]]]},"properties":{"name":"Caspian Sea","ownerKind":"country","ownerKey":"IRN","ownerName":"Iran"}},{"type":"Feature","geometry":{"type":"MultiPolygon","coordinates":[[[[51.207051,38.61469],[51.457051,38.61469],[51.457051,38.36469],[51.707051,38.36469],[51.707051,38.11469],[52.207051,38.11469],[52.207051,37.86469],[52.457051,37.86469],[52.457051,37.61469],[52.957051,37.61469],[52.957051,37.36469],[53.457051,37.36469],[53.457051,37.11469],[53.957051,37.11469],[53.957051,37.163690588417026],[53.95188,37.181943],[53.91426,37.343354],[53.90929210267635,37.36469],[53.897878,37.413711],[53.85883015821344,37.61469],[53.848114,37.669846],[53.829359019056874,37.86469],[53.707051,37.86469],[53.707051,38.11469],[53.833465603820784,38.11469],[53.853953,38.285777],[53.85256160013986,38.36469],[53.851835,38.405899],[53.840208,38.51491],[53.850578705284725,38.61469],[53.851318,38.621803],[53.873539,38.741925],[53.885166,38.864166],[53.88506523881298,38.86469],[53.868785,38.949354],[53.814783,39.018161],[53.724297,39.10335],[53.72096385507448,39.11469],[53.707051,39.11469],[53.707051,39.18242549958385],[53.704712,39.209726],[53.61743,39.216056],[53.539657,39.27427],[53.475062,39.305482],[53.457051,39.31009049226819],[53.336414,39.340958],[53.266599,39.342534],[53.207051,39.31823567816092],[53.203089,39.316619],[53.156528,39.264735],[53.124231,39.346772],[53.124339532751094,39.36469],[53.124747,39.43196],[53.207051,39.56282036863507],[53.207051,39.61469],[53.457051,39.61469],[53.457051,39.725254834546625],[53.450722,39.748401],[53.457051,39.81860765640957],[53.457051,39.86469],[52.97338989514632,39.86469],[53.035347,39.774317],[52.964964,39.834132],[52.957051,39.84342822891259],[52.938952866208695,39.86469],[52.898301,39.912448],[52.804612,40.054274],[52.782613197225025,40.11469],[52.707051,40.11469],[52.707051,40.61469],[52.8165897233556,40.61469],[52.850139,40.685553],[52.88931,40.863372],[52.88971721877971,40.86469],[52.94326,41.037986],[52.920005,41.081911],[52.901453,41.100437],[52.89413877672661,41.11469],[52.707051,41.11469],[52.707051,41.41354284537225],[52.609378,41.529584],[52.57022263000973,41.61469],[51.457051,41.61469],[51.457051,41.36469],[51.207051,41.36469],[51.207051,41.11469],[51.457051,41.11469],[51.457051,39.11469],[51.207051,39.11469],[51.207051,38.61469]]],[[[52.952251,39.895524],[52.957051,39.88852253663233],[52.957051,39.907989241184765],[52.952251,39.895524]]]]},"properties":{"name":"Caspian Sea","ownerKind":"country","ownerKey":"TKM","ownerName":"Turkmenistan"}}]}